[{"OBJECT_NAME":"CS1","OBJECT_ID":"2021-088B","EPOCH":"2026-03-09T18:02:30.253920","MEAN_MOTION":15.31848439,"ECCENTRICITY":0.00141292,"INCLINATION":97.3882,"RA_OF_ASC_NODE":132.1684,"ARG_OF_PERICENTER":78.0335,"MEAN_ANOMALY":282.249,"EPHEMERIS_TYPE":0,"CLASSIFICATION_TYPE":"U","NORAD_CAT_ID":49261,"ELEMENT_SET_NO":999,"REV_AT_EPOCH":24518,"BSTAR":0.00051175576,"MEAN_MOTION_DOT":0.00015722,"MEAN_MOTION_DDOT":0},{"OBJECT_NAME":"STARLINK-30961","OBJECT_ID":"2023-183J","EPOCH":"2026-03-09T23:38:37.717728","MEAN_MOTION":15.26734072,"ECCENTRICITY":0.00017368,"INCLINATION":43.0029,"RA_OF_ASC_NODE":39.5902,"ARG_OF_PERICENTER":271.5992,"MEAN_ANOMALY":88.466,"EPHEMERIS_TYPE":0,"CLASSIFICATION_TYPE":"U","NORAD_CAT_ID":58445,"ELEMENT_SET_NO":999,"REV_AT_EPOCH":12678,"BSTAR":-2.2357482e-5,"MEAN_MOTION_DOT":-8.59e-6,"MEAN_MOTION_DDOT":0}]
